NORAD_CAT_ID,OBJECT_NAME,OBJECT_TYPE,EPOCH,MEAN_MOTION,ECCENTRICITY,INCLINATION,RA_OF_ASC_NODE,ARG_OF_PERICENTER,MEAN_ANOMALY,BSTAR,MEAN_MOTION_DOT,MEAN_MOTION_DDOT,TLE_LINE0,TLE_LINE1,TLE_LINE2,SEMIMAJOR_AXIS,PERIOD,APOGEE,PERIGEE,DECAYED
53778.0,STARLINK-4709,PAYLOAD,2023-05-05 09:47:25,15.08837122,5.61e-05,53.216,264.3645,75.0061,285.0993,1.0539e-06,-2.71e-06,0.0,0 STARLINK-4709,1 53778U 22111F   23125.40793108 -.00000271  00000-0  10539-5 0  9996,2 53778  53.2160 264.3645 0000561  75.0061 285.0993 15.08837122 35922,6917.889,95.438,540.142,539.366,0.0
53778.0,STARLINK-4709,PAYLOAD,2023-05-05 19:19:43,15.08846174,5.78e-05,53.2165,262.5804,75.3186,284.787,0.00048254,7.402e-05,0.0,0 STARLINK-4709,1 53778U 22111F   23125.80536956  .00007402  00000-0  48254-3 0  9991,2 53778  53.2165 262.5804 0000578  75.3186 284.7870 15.08846174 36796,6917.862,95.437,540.126,539.327,0.0
53778.0,STARLINK-4709,PAYLOAD,2023-05-06 15:59:44,15.08866097,5.99e-05,53.2156,258.7157,68.0465,292.059,0.0011823,0.00018592,0.0,0 STARLINK-4709,1 53778U 22111F   23126.66648693  .00018592  00000-0  11823-2 0  9991,2 53778  53.2156 258.7157 0000599  68.0465 292.0590 15.08866097 36928,6917.801,95.436,540.08,539.251,0.0
53778.0,STARLINK-4709,PAYLOAD,2023-05-07 01:32:03,15.08852066,4.91e-05,53.2142,256.9345,120.2832,239.8208,0.00031566,4.741e-05,0.0,0 STARLINK-4709,1 53778U 22111F   23127.06392580  .00004741  00000-0  31566-3 0  9995,2 53778  53.2142 256.9345 0000491 120.2832 239.8208 15.08852066 36175,6917.844,95.437,540.048,539.369,0.0
53778.0,STARLINK-4709,PAYLOAD,2023-05-07 12:39:45,15.08834131,4.66e-05,53.2155,254.8493,99.6299,260.4746,-0.00015307,-2.722e-05,0.0,0 STARLINK-4709,1 53778U 22111F   23127.52761014 -.00002722  00000-0 -15307-3 0  9992,2 53778  53.2155 254.8493 0000466  99.6299 260.4746 15.08834131 36246,6917.898,95.438,540.086,539.441,0.0
53778.0,STARLINK-4709,PAYLOAD,2023-05-07 15:50:31,15.08840877,4.99e-05,53.2153,254.2548,83.8658,276.2391,0.00010425,1.372e-05,0.0,0 STARLINK-4709,1 53778U 22111F   23127.66009099  .00001372  00000-0  10425-3 0  9999,2 53778  53.2153 254.2548 0000499  83.8658 276.2391 15.08840877 37076,6917.878,95.437,540.088,539.398,0.0
53778.0,STARLINK-4709,PAYLOAD,2023-05-08 12:30:32,15.08844001,4.6e-05,53.2135,250.3921,119.9327,240.171,0.00026647,3.956e-05,0.0,0 STARLINK-4709,1 53778U 22111F   23128.52121115  .00003956  00000-0  26647-3 0  9992,2 53778  53.2135 250.3921 0000460 119.9327 240.1710 15.08844001 36392,6917.868,95.437,540.051,539.415,0.0
53778.0,STARLINK-4709,PAYLOAD,2023-05-08 15:41:18,15.08849339,4.69e-05,53.2142,249.7955,96.5102,263.5944,0.00065742,0.00010193,0.0,0 STARLINK-4709,1 53778U 22111F   23128.65369135  .00010193  00000-0  65742-3 0  9992,2 53778  53.2142 249.7955 0000469  96.5102 263.5944 15.08849339 37229,6917.852,95.437,540.041,539.392,0.0
53778.0,STARLINK-4709,PAYLOAD,2023-05-09 13:56:43,15.08842996,5.84e-05,53.2151,245.6308,88.1315,271.9744,0.00032429,4.878e-05,0.0,0 STARLINK-4709,1 53778U 22111F   23129.58105329  .00004878  00000-0  32429-3 0  9997,2 53778  53.2151 245.6308 0000584  88.1315 271.9744 15.08842996 37365,6917.871,95.437,540.14,539.332,0.0
53778.0,STARLINK-4709,PAYLOAD,2023-05-10 12:12:07,15.08837594,8.33e-05,53.2155,241.4631,64.3813,295.7265,0.00019969,2.892e-05,0.0,0 STARLINK-4709,1 53778U 22111F   23130.50841806  .00002892  00000-0  19969-3 0  9996,2 53778  53.2155 241.4631 0000833  64.3813 295.7265 15.08837594 37504,6917.888,95.438,540.329,539.176,0.0
53778.0,STARLINK-4709,PAYLOAD,2023-05-10 13:47:30,15.08841902,6.04e-05,53.2149,241.1717,80.5795,279.5266,0.00010927,1.452e-05,0.0,0 STARLINK-4709,1 53778U 22111F   23130.57465655  .00001452  00000-0  10927-3 0  9993,2 53778  53.2149 241.1717 0000604  80.5795 279.5266 15.08841902 36704,6917.875,95.437,540.157,539.322,0.0
53778.0,STARLINK-4709,PAYLOAD,2023-05-11 10:27:30,15.08846038,7.14e-05,53.2156,237.3047,82.4948,277.6125,0.0002814,4.194e-05,0.0,0 STARLINK-4709,1 53778U 22111F   23131.43577542  .00004194  00000-0  28140-3 0  9990,2 53778  53.2156 237.3047 0000714  82.4948 277.6125 15.08846038 37640,6917.862,95.437,540.221,539.233,0.0
53778.0,STARLINK-4709,PAYLOAD,2023-05-11 13:38:17,15.08850361,8.58e-05,53.216,236.7104,77.752,282.3568,0.00034304,5.177e-05,0.0,0 STARLINK-4709,1 53778U 22111F   23131.56825386  .00005177  00000-0  34304-3 0  9997,2 53778  53.2160 236.7104 0000858  77.7520 282.3568 15.08850361 37664,6917.849,95.437,540.307,539.12,0.0
53778.0,STARLINK-4709,PAYLOAD,2023-05-12 10:18:18,15.0884199,8.99e-05,53.2153,232.8438,67.6973,292.4114,9.3593e-05,1.202e-05,0.0,0 STARLINK-4709,1 53778U 22111F   23132.42937671  .00001202  00000-0  93593-4 0  9995,2 53778  53.2153 232.8438 0000899  67.6973 292.4114 15.08841990 36989,6917.874,95.437,540.361,539.117,0.0
53778.0,STARLINK-4709,PAYLOAD,2023-05-13 13:19:51,15.08839455,6.93e-05,53.2158,227.787,106.1539,253.9529,-5.7533e-05,-1.203e-05,0.0,0 STARLINK-4709,1 53778U 22111F   23133.55545770 -.00001203  00000-0 -57533-4 0  9992,2 53778  53.2158 227.7870 0000693 106.1539 253.9529 15.08839455 37151,6917.882,95.438,540.226,539.268,0.0
53778.0,STARLINK-4709,PAYLOAD,2023-05-14 11:35:15,15.08833855,6.89e-05,53.2155,223.6261,89.59,270.5171,1.7613e-05,-7e-08,0.0,0 STARLINK-4709,1 53778U 22111F   23134.48282324 -.00000007  00000-0  17613-4 0  9993,2 53778  53.2155 223.6261 0000689  89.5900 270.5171 15.08833855 38100,6917.899,95.438,540.241,539.288,0.0
53778.0,STARLINK-4709,PAYLOAD,2023-05-14 14:46:01,15.08837688,8.22e-05,53.2155,223.0312,94.6152,265.4934,4.1233e-05,3.69e-06,0.0,0 STARLINK-4709,1 53778U 22111F   23134.61530062  .00000369  00000-0  41233-4 0  9998,2 53778  53.2155 223.0312 0000822  94.6152 265.4934 15.08837688 38126,6917.887,95.438,540.321,539.184,0.0
53778.0,STARLINK-4709,PAYLOAD,2023-05-14 22:42:57,15.08836521,8.64e-05,53.2161,221.5451,91.6246,268.4845,3.2909e-05,2.36e-06,0.0,0 STARLINK-4709,1 53778U 22111F   23134.94650234  .00000236  00000-0  32909-4 0  9991,2 53778  53.2161 221.5451 0000864  91.6246 268.4845 15.08836521 37361,6917.891,95.438,540.354,539.158,0.0
53778.0,STARLINK-4709,PAYLOAD,2023-05-15 13:01:26,15.08839543,7.75e-05,53.2167,218.8677,89.2841,270.824,7.273e-05,8.7e-06,0.0,0 STARLINK-4709,1 53778U 22111F   23135.54266498  .00000870  00000-0  72730-4 0  9993,2 53778  53.2167 218.8677 0000775  89.2841 270.8240 15.08839543 38264,6917.882,95.438,540.283,539.211,0.0
53778.0,STARLINK-4709,PAYLOAD,2023-05-15 14:36:49,15.08840716,8.11e-05,53.2169,218.5692,88.2914,271.8171,8.1012e-05,1.002e-05,0.0,0 STARLINK-4709,1 53778U 22111F   23135.60890410  .00001002  00000-0  81012-4 0  9998,2 53778  53.2169 218.5692 0000811  88.2914 271.8171 15.08840716 38270,6917.878,95.438,540.304,539.182,0.0
53778.0,STARLINK-4709,PAYLOAD,2023-05-16 12:52:13,15.08840409,8.61e-05,53.2169,214.4054,77.2811,282.8278,6.244e-05,7.06e-06,0.0,0 STARLINK-4709,1 53778U 22111F   23136.53626585  .00000706  00000-0  62440-4 0  9995,2 53778  53.2169 214.4054 0000861  77.2811 282.8278 15.08840409 37601,6917.879,95.438,540.34,539.149,0.0
53778.0,STARLINK-4709,PAYLOAD,2023-05-16 14:27:36,15.0884105,8.71e-05,53.2169,214.1079,76.5651,283.5438,6.5053e-05,7.48e-06,0.0,0 STARLINK-4709,1 53778U 22111F   23136.60250527  .00000748  00000-0  65053-4 0  9991,2 53778  53.2169 214.1079 0000871  76.5651 283.5438 15.08841050 38420,6917.877,95.437,540.345,539.14,0.0
53778.0,STARLINK-4709,PAYLOAD,2023-05-17 11:07:36,15.08844331,7.54e-05,53.2162,210.2432,81.9443,278.1635,7.0371e-05,8.33e-06,0.0,0 STARLINK-4709,1 53778U 22111F   23137.46362184  .00000833  00000-0  70371-4 0  9993,2 53778  53.2162 210.2432 0000754  81.9443 278.1635 15.08844331 38550,6917.867,95.437,540.254,539.211,0.0
53778.0,STARLINK-4709,PAYLOAD,2023-05-17 23:50:42,15.08842264,8.55e-05,53.2157,207.8666,70.6392,289.4693,6.9162e-05,8.13e-06,0.0,0 STARLINK-4709,1 53778U 22111F   23137.99354266  .00000813  00000-0  69162-4 0  9997,2 53778  53.2157 207.8666 0000855  70.6392 289.4693 15.08842264 37826,6917.873,95.437,540.33,539.147,0.0
53778.0,STARLINK-4709,PAYLOAD,2023-05-18 10:58:24,15.08839161,8.52e-05,53.2159,205.7853,69.2118,290.8965,1.9506e-05,2.3e-07,0.0,0 STARLINK-4709,1 53778U 22111F   23138.45722552  .00000023  00000-0  19506-4 0  9996,2 53778  53.2159 205.7853 0000852  69.2118 290.8965 15.08839161 38708,6917.883,95.438,540.337,539.159,0.0
53778.0,STARLINK-4709,PAYLOAD,2023-05-19 04:27:38,15.08841767,8.56e-05,53.2156,202.5139,70.3797,289.7287,3.4069e-05,2.55e-06,0.0,0 STARLINK-4709,1 53778U 22111F   23139.18586302  .00000255  00000-0  34069-4 0  9996,2 53778  53.2156 202.5139 0000856  70.3797 289.7287 15.08841767 38009,6917.875,95.437,540.332,539.148,0.0
53778.0,STARLINK-4709,PAYLOAD,2023-05-19 13:59:57,15.08843197,7.25e-05,53.2156,200.7286,81.9171,278.1903,3.6925e-05,3e-06,0.0,0 STARLINK-4709,1 53778U 22111F   23139.58330058  .00000300  00000-0  36925-4 0  9999,2 53778  53.2156 200.7286 0000725  81.9171 278.1903 15.08843197 38872,6917.871,95.437,540.237,539.234,0.0
53778.0,STARLINK-4709,PAYLOAD,2023-05-20 09:04:34,15.08841447,7.89e-05,53.2154,197.1601,74.9586,285.1494,7.783e-05,9.51e-06,0.0,0 STARLINK-4709,1 53778U 22111F   23140.37818085  .00000951  00000-0  77830-4 0  9991,2 53778  53.2154 197.1601 0000789  74.9586 285.1494 15.08841447 38185,6917.876,95.437,540.287,539.195,0.0
53778.0,STARLINK-4709,PAYLOAD,2023-05-20 20:12:16,15.0884546,8.24e-05,53.2159,195.0782,80.0999,280.0087,9.5607e-05,1.234e-05,0.0,0 STARLINK-4709,1 53778U 22111F   23140.84185682  .00001234  00000-0  95607-4 0  9990,2 53778  53.2159 195.0782 0000824  80.0999 280.0087 15.08845460 39062,6917.864,95.437,540.299,539.159,0.0
53778.0,STARLINK-4709,PAYLOAD,2023-05-21 08:55:21,15.08844889,9.06e-05,53.2163,192.7,94.7475,265.3621,7.0376e-05,8.33e-06,0.0,0 STARLINK-4709,1 53778U 22111F   23141.37177685  .00000833  00000-0  70376-4 0  9993,2 53778  53.2163 192.7000 0000906  94.7475 265.3621 15.08844889 39149,6917.865,95.437,540.357,539.104,0.0
